{"type": "FeatureCollection", "features": [ {"type": "Feature", "properties": {"norad_id": 66595, "name": "STARLINK-35711", "group": "last-30-days", "lat": 40.769899110243095, "lon": -138.4180288778267, "alt_km": 437.3971256902323, "timestamp": "2025-12-27T02:10:14.905574+00:00", "meta": {"OBJECT_NAME": "STARLINK-35711", "OBJECT_ID": "2025-270H", "EPOCH": "2025-12-26T14:49:09.295680", "MEAN_MOTION": 15.40706631, "ECCENTRICITY": 2.88e-05, "INCLINATION": 42.9982, "RA_OF_ASC_NODE": 112.0335, "ARG_OF_PERICENTER": 200.2134, "MEAN_ANOMALY": 159.8711, "EPHEMERIS_TYPE": 0, "CLASSIFICATION_TYPE": "U", "NORAD_CAT_ID": 66595, "ELEMENT_SET_NO": 999, "REV_AT_EPOCH": 660, "BSTAR": 0.0014088, "MEAN_MOTION_DOT": 0.00059014, "MEAN_MOTION_DDOT": 0}, "tle": {"line1": "1 66595U 25270H   25360.61746870  .00059014  00000+0  14088-2 0  9993", "line2": "2 66595  42.9982 112.0335 0000288 200.2134 159.8711 15.40706631  6609"}}, "geometry": {"type": "Point", "coordinates": [-138.4180288778267, 40.769899110243095]}}, {"type": "Feature", "properties": {"norad_id": 66596, "name": "STARLINK-35811", "group": "last-30-days", "lat": 8.07598654157044, "lon": -78.72694734820718, "alt_km": 442.9293211458207, "timestamp": "2025-12-27T02:10:14.905585+00:00", "meta": {"OBJECT_NAME": "STARLINK-35811", "OBJECT_ID": "2025-270J", "EPOCH": "2025-12-26T16:06:34.336800", "MEAN_MOTION": 15.40660741, "ECCENTRICITY": 8.22e-05, "INCLINATION": 42.9994, "RA_OF_ASC_NODE": 112.4481, "ARG_OF_PERICENTER": 285.2412, "MEAN_ANOMALY": 74.8354, "EPHEMERIS_TYPE": 0, "CLASSIFICATION_TYPE": "U", "NORAD_CAT_ID": 66596, "ELEMENT_SET_NO": 999, "REV_AT_EPOCH": 660, "BSTAR": 0.0016365, "MEAN_MOTION_DOT": 0.00068584, "MEAN_MOTION_DDOT": 0}, "tle": {"line1": "1 66596U 25270J   25360.67123075  .00068584  00000+0  16365-2 0  9998", "line2": "2 66596  42.9994 112.4481 0000822 285.2412  74.8354 15.40660741  6605"}}, "geometry": {"type": "Point", "coordinates": [-78.72694734820718, 8.07598654157044]}}, {"type": "Feature", "properties": {"norad_id": 66597, "name": "STARLINK-35820", "group": "last-30-days", "lat": -24.765434757092166, "lon": -40.41612515551209, "alt_km": 445.49955682316977, "timestamp": "2025-12-27T02:10:14.905596+00:00", "meta": {"OBJECT_NAME": "STARLINK-35820", "OBJECT_ID": "2025-270K", "EPOCH": "2025-12-26T17:27:01.514304", "MEAN_MOTION": 15.40727442, "ECCENTRICITY": 0.0001571, "INCLINATION": 43.0019, "RA_OF_ASC_NODE": 112.0061, "ARG_OF_PERICENTER": 267.3667, "MEAN_ANOMALY": 92.701, "EPHEMERIS_TYPE": 0, "CLASSIFICATION_TYPE": "U", "NORAD_CAT_ID": 66597, "ELEMENT_SET_NO": 999, "REV_AT_EPOCH": 661, "BSTAR": 0.0015888, "MEAN_MOTION_DOT": 0.00066709, "MEAN_MOTION_DDOT": 0}, "tle": {"line1": "1 66597U 25270K   25360.72710086  .00066709  00000+0  15888-2 0  9995", "line2": "2 66597  43.0019 112.0061 0001571 267.3667  92.7010 15.40727442  6612"}}, "geometry": {"type": "Point", "coordinates": [-40.41612515551209, -24.765434757092166]}}, {"type": "Feature", "properties": {"norad_id": 66598, "name": "STARLINK-35981", "group": "last-30-days", "lat": -33.68172729830146, "lon": 64.03161714925135, "alt_km": 445.52331833341395, "timestamp": "2025-12-27T02:10:14.905606+00:00", "meta": {"OBJECT_NAME": "STARLINK-35981", "OBJECT_ID": "2025-270L", "EPOCH": "2025-12-25T14:37:26.403168", "MEAN_MOTION": 15.4075353, "ECCENTRICITY": 0.0001255, "INCLINATION": 42.9985, "RA_OF_ASC_NODE": 118.2329, "ARG_OF_PERICENTER": 277.5792, "MEAN_ANOMALY": 82.4921, "EPHEMERIS_TYPE": 0, "CLASSIFICATION_TYPE": "U", "NORAD_CAT_ID": 66598, "ELEMENT_SET_NO": 999, "REV_AT_EPOCH": 618, "BSTAR": 0.0013375, "MEAN_MOTION_DOT": 0.00056078, "MEAN_MOTION_DDOT": 0}, "tle": {"line1": "1 66598U 25270L   25359.60933337  .00056078  00000+0  13375-2 0  9994", "line2": "2 66598  42.9985 118.2329 0001255 277.5792  82.4921 15.40753530  6185"}}, "geometry": {"type": "Point", "coordinates": [64.03161714925135, -33.68172729830146]}}, {"type": "Feature", "properties": {"norad_id": 66599, "name": "STARLINK-35930", "group": "last-30-days", "lat": 42.43592722486473, "lon": -171.80077450973693, "alt_km": 438.3169986340499, "timestamp": "2025-12-27T02:10:14.905616+00:00", "meta": {"OBJECT_NAME": "STARLINK-35930", "OBJECT_ID": "2025-270M", "EPOCH": "2025-12-26T14:55:36.156864", "MEAN_MOTION": 15.40718778, "ECCENTRICITY": 0.0001848, "INCLINATION": 43.0021, "RA_OF_ASC_NODE": 112.0674, "ARG_OF_PERICENTER": 277.375, "MEAN_ANOMALY": 82.6897, "EPHEMERIS_TYPE": 0, "CLASSIFICATION_TYPE": "U", "NORAD_CAT_ID": 66599, "ELEMENT_SET_NO": 999, "REV_AT_EPOCH": 649, "BSTAR": 0.0010666, "MEAN_MOTION_DOT": 0.0004454, "MEAN_MOTION_DDOT": 0}, "tle": {"line1": "1 66599U 25270M   25360.62194626  .00044540  00000+0  10666-2 0  9990", "line2": "2 66599  43.0021 112.0674 0001848 277.3750  82.6897 15.40718778  6497"}}, "geometry": {"type": "Point", "coordinates": [-171.80077450973693, 42.43592722486473]}}, {"type": "Feature", "properties": {"norad_id": 66600, "name": "STARLINK-35980", "group": "last-30-days", "lat": -3.6727406529966475, "lon": 105.62933422278621, "alt_km": 444.08999670011053, "timestamp": "2025-12-27T02:10:14.905626+00:00", "meta": {"OBJECT_NAME": "STARLINK-35980", "OBJECT_ID": "2025-270N", "EPOCH": "2025-12-26T16:51:32.455008", "MEAN_MOTION": 15.40717072, "ECCENTRICITY": 0.0001413, "INCLINATION": 43.0005, "RA_OF_ASC_NODE": 111.8156, "ARG_OF_PERICENTER": 264.0328, "MEAN_ANOMALY": 96.0368, "EPHEMERIS_TYPE": 0, "CLASSIFICATION_TYPE": "U", "NORAD_CAT_ID": 66600, "ELEMENT_SET_NO": 999, "REV_AT_EPOCH": 640, "BSTAR": 0.0011356, "MEAN_MOTION_DOT": 0.00047457, "MEAN_MOTION_DDOT": 0}, "tle": {"line1": "1 66600U 25270N   25360.70245897  .00047457  00000+0  11356-2 0  9996", "line2": "2 66600  43.0005 111.8156 0001413 264.0328  96.0368 15.40717072  6405"}}, "geometry": {"type": "Point", "coordinates": [105.62933422278621, -3.6727406529966475]}}, {"type": "Feature", "properties": {"norad_id": 66601, "name": "STARLINK-35978", "group": "last-30-days", "lat": -41.25660541566343, "lon": 0.09403145986311895, "alt_km": 447.2904919077364, "timestamp": "2025-12-27T02:10:14.905637+00:00", "meta": {"OBJECT_NAME": "STARLINK-35978", "OBJECT_ID": "2025-270P", "EPOCH": "2025-12-26T14:10:38.424864", "MEAN_MOTION": 15.40750428, "ECCENTRICITY": 4.83e-05, "INCLINATION": 43.0003, "RA_OF_ASC_NODE": 112.7006, "ARG_OF_PERICENTER": 109.4058, "MEAN_ANOMALY": 250.6851, "EPHEMERIS_TYPE": 0, "CLASSIFICATION_TYPE": "U", "NORAD_CAT_ID": 66601, "ELEMENT_SET_NO": 999, "REV_AT_EPOCH": 632, "BSTAR": 0.0012989, "MEAN_MOTION_DOT": 0.00054433, "MEAN_MOTION_DDOT": 0}, "tle": {"line1": "1 66601U 25270P   25360.59072251  .00054433  00000+0  12989-2 0  9991", "line2": "2 66601  43.0003 112.7006 0000483 109.4058 250.6851 15.40750428  6324"}}, "geometry": {"type": "Point", "coordinates": [0.09403145986311895, -41.25660541566343]}}, {"type": "Feature", "properties": {"norad_id": 66602, "name": "STARLINK-36050", "group": "last-30-days", "lat": -0.4462072158243569, "lon": -69.52108390009121, "alt_km": 443.4831930497621, "timestamp": "2025-12-27T02:10:14.905646+00:00", "meta": {"OBJECT_NAME": "STARLINK-36050", "OBJECT_ID": "2025-270Q", "EPOCH": "2025-12-26T16:03:21.385728", "MEAN_MOTION": 15.40750684, "ECCENTRICITY": 4.19e-05, "INCLINATION": 42.9995, "RA_OF_ASC_NODE": 112.4296, "ARG_OF_PERICENTER": 251.3253, "MEAN_ANOMALY": 108.7558, "EPHEMERIS_TYPE": 0, "CLASSIFICATION_TYPE": "U", "NORAD_CAT_ID": 66602, "ELEMENT_SET_NO": 999, "REV_AT_EPOCH": 639, "BSTAR": 0.0015287, "MEAN_MOTION_DOT": 0.00064199, "MEAN_MOTION_DDOT": 0}, "tle": {"line1": "1 66602U 25270Q   25360.66899752  .00064199  00000+0  15287-2 0  9997", "line2": "2 66602  42.9995 112.4296 0000419 251.3253 108.7558 15.40750684  6392"}}, "geometry": {"type": "Point", "coordinates": [-69.52108390009121, -0.4462072158243569]}}, {"type": "Feature", "properties": {"norad_id": 66603, "name": "STARLINK-36048", "group": "last-30-days", "lat": -39.02462962992125, "lon": 49.29814420720315, "alt_km": 444.5123416520564, "timestamp": "2025-12-27T02:10:14.905657+00:00", "meta": {"OBJECT_NAME": "STARLINK-36048", "OBJECT_ID": "2025-270R", "EPOCH": "2025-12-26T17:07:39.283104", "MEAN_MOTION": 15.40743551, "ECCENTRICITY": 0.0004775, "INCLINATION": 42.9999, "RA_OF_ASC_NODE": 111.9022, "ARG_OF_PERICENTER": 249.7132, "MEAN_ANOMALY": 110.3211, "EPHEMERIS_TYPE": 0, "CLASSIFICATION_TYPE": "U", "NORAD_CAT_ID": 66603, "ELEMENT_SET_NO": 999, "REV_AT_EPOCH": 640, "BSTAR": 0.0013489, "MEAN_MOTION_DOT": 0.0005656, "MEAN_MOTION_DDOT": 0}, "tle": {"line1": "1 66603U 25270R   25360.71364911  .00056560  00000+0  13489-2 0  9993", "line2": "2 66603  42.9999 111.9022 0004775 249.7132 110.3211 15.40743551  6406"}}, "geometry": {"type": "Point", "coordinates": [49.29814420720315, -39.02462962992125]}}, {"type": "Feature", "properties": {"norad_id": 66604, "name": "STARLINK-35977", "group": "last-30-days", "lat": -27.52375525947423, "lon": 75.6705986231669, "alt_km": 445.6297226681663, "timestamp": "2025-12-27T02:10:14.905667+00:00", "meta": {"OBJECT_NAME": "STARLINK-35977", "OBJECT_ID": "2025-270S", "EPOCH": "2025-12-26T17:01:13.092384", "MEAN_MOTION": 15.40722362, "ECCENTRICITY": 0.0001635, "INCLINATION": 43.0013, "RA_OF_ASC_NODE": 111.8672, "ARG_OF_PERICENTER": 264.981, "MEAN_ANOMALY": 95.086, "EPHEMERIS_TYPE": 0, "CLASSIFICATION_TYPE": "U", "NORAD_CAT_ID": 66604, "ELEMENT_SET_NO": 999, "REV_AT_EPOCH": 650, "BSTAR": 0.0018063, "MEAN_MOTION_DOT": 0.00075961, "MEAN_MOTION_DDOT": 0}, "tle": {"line1": "1 66604U 25270S   25360.70917931  .00075961  00000+0  18063-2 0  9998", "line2": "2 66604  43.0013 111.8672 0001635 264.9810  95.0860 15.40722362  6507"}}, "geometry": {"type": "Point", "coordinates": [75.6705986231669, -27.52375525947423]}}]}